[{"OBJECT_NAME":"STARLINK-5737","OBJECT_ID":"2023-020B","EPOCH":"2026-03-09T22:00:01.999584","MEAN_MOTION":15.1388219,"ECCENTRICITY":0.00010422,"INCLINATION":43.0006,"RA_OF_ASC_NODE":3.3868,"ARG_OF_PERICENTER":257.7243,"MEAN_ANOMALY":107.1398,"EPHEMERIS_TYPE":0,"CLASSIFICATION_TYPE":"U","NORAD_CAT_ID":55570,"ELEMENT_SET_NO":999,"REV_AT_EPOCH":577,"BSTAR":0.033208874,"MEAN_MOTION_DOT":0.00653406,"MEAN_MOTION_DDOT":0},{"OBJECT_NAME":"TRANSPORTER-15 OBJECT AB","OBJECT_ID":"2025-276AB","EPOCH":"2026-03-09T17:52:46.062048","MEAN_MOTION":15.19167026,"ECCENTRICITY":0.00043423,"INCLINATION":97.4278,"RA_OF_ASC_NODE":144.019,"ARG_OF_PERICENTER":4.0315,"MEAN_ANOMALY":356.0954,"EPHEMERIS_TYPE":0,"CLASSIFICATION_TYPE":"U","NORAD_CAT_ID":66691,"ELEMENT_SET_NO":999,"REV_AT_EPOCH":1532,"BSTAR":0.00051798273,"MEAN_MOTION_DOT":0.00010833,"MEAN_MOTION_DDOT":0}]
